{
  "norad_id": 66980,
  "name": "STARLINK-36086",
  "history": [
    {
      "epoch": "2026-03-28T21:48:17.031744Z",
      "apogee_km": 483.73296099282743,
      "perigee_km": 482.13501755942525,
      "latitude_deg": 4.92892772302467e-05,
      "longitude_deg": 121.78556254660374,
      "height_km": 482.7372516882127,
      "semi_major_axis_km": 6861.070989276126,
      "eccentricity": 0.00011645,
      "inclination_deg": 43.0022,
      "raan_deg": 275.1787,
      "arg_perigee_deg": 268.0973,
      "mean_anomaly_deg": 91.9746,
      "mean_motion_rev_day": 15.27618442
    },
    {
      "epoch": "2026-03-28T23:22:26.185152Z",
      "apogee_km": 484.05239193640045,
      "perigee_km": 481.8801666381778,
      "latitude_deg": -3.2980439761605684e-05,
      "longitude_deg": 97.81359045612076,
      "height_km": 482.8691607034148,
      "semi_major_axis_km": 6861.103279287288,
      "eccentricity": 0.0001583,
      "inclination_deg": 43.0017,
      "raan_deg": 274.8094,
      "arg_perigee_deg": 263.3452,
      "mean_anomaly_deg": 96.7219,
      "mean_motion_rev_day": 15.27607658
    },
    {
      "epoch": "2026-03-29T22:54:47.265408Z",
      "apogee_km": 484.4802284670832,
      "perigee_km": 481.5619034952988,
      "latitude_deg": -1.6973084041277373e-06,
      "longitude_deg": 98.21986975118602,
      "height_km": 482.660399273403,
      "semi_major_axis_km": 6861.158065981191,
      "eccentricity": 0.00021267,
      "inclination_deg": 43.0035,
      "raan_deg": 269.2702,
      "arg_perigee_deg": 275.4401,
      "mean_anomaly_deg": 84.6208,
      "mean_motion_rev_day": 15.27589361
    },
    {
      "epoch": "2026-03-30T22:27:08.461440Z",
      "apogee_km": 483.96722655950725,
      "perigee_km": 481.8647254855341,
      "latitude_deg": -3.0011889089192267e-05,
      "longitude_deg": 98.62420240242123,
      "height_km": 482.48752148565444,
      "semi_major_axis_km": 6861.05297602252,
      "eccentricity": 0.00015322,
      "inclination_deg": 43.0032,
      "raan_deg": 263.7296,
      "arg_perigee_deg": 281.2798,
      "mean_anomaly_deg": 78.7881,
      "mean_motion_rev_day": 15.27624458
    },
    {
      "epoch": "2026-04-01T12:06:53.687520Z",
      "apogee_km": 484.21493252721484,
      "perigee_km": 481.8780134363187,
      "latitude_deg": 2.3941325769499416e-05,
      "longitude_deg": -116.72372645829746,
      "height_km": 483.03154457007554,
      "semi_major_axis_km": 6861.1834729817665,
      "eccentricity": 0.0001703,
      "inclination_deg": 43.0034,
      "raan_deg": 254.8668,
      "arg_perigee_deg": 259.756,
      "mean_anomaly_deg": 100.31,
      "mean_motion_rev_day": 15.27580876
    },
    {
      "epoch": "2026-04-02T11:39:14.509440Z",
      "apogee_km": 483.8877260325262,
      "perigee_km": 482.14224896690484,
      "latitude_deg": 2.7186820655837238e-05,
      "longitude_deg": -116.31869723870527,
      "height_km": 483.0331779419871,
      "semi_major_axis_km": 6861.151987499715,
      "eccentricity": 0.0001272,
      "inclination_deg": 43.0016,
      "raan_deg": 249.3253,
      "arg_perigee_deg": 253.9359,
      "mean_anomaly_deg": 106.1353,
      "mean_motion_rev_day": 15.27591391
    },
    {
      "epoch": "2026-04-03T11:11:34.975392Z",
      "apogee_km": 484.39580556404053,
      "perigee_km": 481.46585515776405,
      "latitude_deg": -2.1673061596637178e-05,
      "longitude_deg": -115.9056369480687,
      "height_km": 482.08270892188347,
      "semi_major_axis_km": 6861.067830360902,
      "eccentricity": 0.00021352,
      "inclination_deg": 43.0036,
      "raan_deg": 243.7904,
      "arg_perigee_deg": 295.2854,
      "mean_anomaly_deg": 64.7776,
      "mean_motion_rev_day": 15.27619497
    },
    {
      "epoch": "2026-04-04T18:34:42.933792Z",
      "apogee_km": 484.697034465501,
      "perigee_km": 481.326838107997,
      "latitude_deg": 1.434129657203699e-05,
      "longitude_deg": 124.63938218567043,
      "height_km": 482.114172135432,
      "semi_major_axis_km": 6861.148936286749,
      "eccentricity": 0.0002456,
      "inclination_deg": 43.0071,
      "raan_deg": 236.4075,
      "arg_perigee_deg": 293.6511,
      "mean_anomaly_deg": 66.4083,
      "mean_motion_rev_day": 15.2759241
    },
    {
      "epoch": "2026-04-05T10:16:17.803776Z",
      "apogee_km": 483.85258874274314,
      "perigee_km": 482.3273379887878,
      "latitude_deg": -3.155160011760547e-05,
      "longitude_deg": -115.0976487387233,
      "height_km": 483.03566893523055,
      "semi_major_axis_km": 6861.226963365765,
      "eccentricity": 0.00011115,
      "inclination_deg": 43.0023,
      "raan_deg": 232.7103,
      "arg_perigee_deg": 257.1941,
      "mean_anomaly_deg": 102.8786,
      "mean_motion_rev_day": 15.27566352
    },
    {
      "epoch": "2026-04-07T17:11:45.498048Z",
      "apogee_km": 484.14670472258877,
      "perigee_km": 481.78099714918517,
      "latitude_deg": -2.4627870284700292e-05,
      "longitude_deg": 125.86009694674154,
      "height_km": 482.7960341182131,
      "semi_major_axis_km": 6861.100850935886,
      "eccentricity": 0.0001724,
      "inclination_deg": 43.0055,
      "raan_deg": 219.7891,
      "arg_perigee_deg": 267.3535,
      "mean_anomaly_deg": 92.7119,
      "mean_motion_rev_day": 15.27608469
    },
    {
      "epoch": "2026-04-08T08:53:20.525280Z",
      "apogee_km": 483.82012190609385,
      "perigee_km": 482.4809358062121,
      "latitude_deg": 4.673554749799298e-06,
      "longitude_deg": -113.87421178638607,
      "height_km": 483.1916510524556,
      "semi_major_axis_km": 6861.287528856153,
      "eccentricity": 9.759e-05,
      "inclination_deg": 43.0004,
      "raan_deg": 216.0952,
      "arg_perigee_deg": 246.7009,
      "mean_anomaly_deg": 113.374,
      "mean_motion_rev_day": 15.27546126
    },
    {
      "epoch": "2026-04-09T14:42:19.577376Z",
      "apogee_km": 483.8991238258204,
      "perigee_km": 482.0411360150374,
      "latitude_deg": -1.7980127622978738e-05,
      "longitude_deg": 150.6385937550889,
      "height_km": 482.6529922303873,
      "semi_major_axis_km": 6861.107129920429,
      "eccentricity": 0.0001354,
      "inclination_deg": 43.0022,
      "raan_deg": 209.0786,
      "arg_perigee_deg": 275.8107,
      "mean_anomaly_deg": 84.259,
      "mean_motion_rev_day": 15.27606372
    },
    {
      "epoch": "2026-04-10T07:58:02.089632Z",
      "apogee_km": 483.2211721053045,
      "perigee_km": 482.62425991001146,
      "latitude_deg": 1.2931333843525334e-05,
      "longitude_deg": -113.05852690475261,
      "height_km": 482.5966210474792,
      "semi_major_axis_km": 6861.059716007658,
      "eccentricity": 4.35e-05,
      "inclination_deg": 43.0032,
      "raan_deg": 205.0175,
      "arg_perigee_deg": 290.04,
      "mean_anomaly_deg": 70.0405,
      "mean_motion_rev_day": 15.27622207
    },
    {
      "epoch": "2026-04-11T13:46:59.849184Z",
      "apogee_km": 484.1793831517625,
      "perigee_km": 481.91382032646834,
      "latitude_deg": 3.106731188658954e-05,
      "longitude_deg": 151.4614237171646,
      "height_km": 482.85774709710824,
      "semi_major_axis_km": 6861.183601739115,
      "eccentricity": 0.0001651,
      "inclination_deg": 43.0032,
      "raan_deg": 198.0026,
      "arg_perigee_deg": 268.2855,
      "mean_anomaly_deg": 91.7808,
      "mean_motion_rev_day": 15.27580833
    },
    {
      "epoch": "2026-04-13T06:35:05.129952Z",
      "apogee_km": 484.24024257795463,
      "perigee_km": 481.8594107491026,
      "latitude_deg": 5.071183229729489e-05,
      "longitude_deg": -111.83851624687664,
      "height_km": 482.7455977898459,
      "semi_major_axis_km": 6861.186826663528,
      "eccentricity": 0.0001735,
      "inclination_deg": 43.002,
      "raan_deg": 188.4003,
      "arg_perigee_deg": 273.9222,
      "mean_anomaly_deg": 86.1432,
      "mean_motion_rev_day": 15.27579756
    },
    {
      "epoch": "2026-04-14T12:24:02.870496Z",
      "apogee_km": 484.1086626841061,
      "perigee_km": 481.91295816181355,
      "latitude_deg": -4.0842746516534346e-05,
      "longitude_deg": 152.68050051647202,
      "height_km": 482.6549094854867,
      "semi_major_axis_km": 6861.147810422959,
      "eccentricity": 0.00016001,
      "inclination_deg": 43.0018,
      "raan_deg": 181.3845,
      "arg_perigee_deg": 276.9571,
      "mean_anomaly_deg": 83.1098,
      "mean_motion_rev_day": 15.27592786
    },
    {
      "epoch": "2026-04-15T11:56:22.984800Z",
      "apogee_km": 483.90503423616246,
      "perigee_km": 482.094243054491,
      "latitude_deg": -3.627641603518382e-06,
      "longitude_deg": 153.0898232064649,
      "height_km": 482.6416275042858,
      "semi_major_axis_km": 6861.1366386453265,
      "eccentricity": 0.00013196,
      "inclination_deg": 43.0006,
      "raan_deg": 175.8443,
      "arg_perigee_deg": 278.5571,
      "mean_anomaly_deg": 81.5131,
      "mean_motion_rev_day": 15.27596517
    },
    {
      "epoch": "2026-04-16T13:02:52.972224Z",
      "apogee_km": 484.20600147382083,
      "perigee_km": 481.84301744996355,
      "latitude_deg": -2.879712371929909e-05,
      "longitude_deg": 129.52588833421876,
      "height_km": 482.7578610360652,
      "semi_major_axis_km": 6861.161509461892,
      "eccentricity": 0.0001722,
      "inclination_deg": 43.0013,
      "raan_deg": 169.9365,
      "arg_perigee_deg": 272.1227,
      "mean_anomaly_deg": 87.9427,
      "mean_motion_rev_day": 15.27588211
    },
    {
      "epoch": "2026-04-17T20:26:00.805344Z",
      "apogee_km": 484.2616266537543,
      "perigee_km": 481.79147055298654,
      "latitude_deg": -2.415316492100209e-05,
      "longitude_deg": 10.069600073418098,
      "height_km": 482.80272162480856,
      "semi_major_axis_km": 6861.16354860337,
      "eccentricity": 0.00018001,
      "inclination_deg": 43.0019,
      "raan_deg": 162.5518,
      "arg_perigee_deg": 270.0493,
      "mean_anomaly_deg": 90.0152,
      "mean_motion_rev_day": 15.2758753
    }
  ]
}